NORAD_CAT_ID,OBJECT_NAME,OBJECT_TYPE,EPOCH,MEAN_MOTION,ECCENTRICITY,INCLINATION,RA_OF_ASC_NODE,ARG_OF_PERICENTER,MEAN_ANOMALY,BSTAR,MEAN_MOTION_DOT,MEAN_MOTION_DDOT,TLE_LINE0,TLE_LINE1,TLE_LINE2,SEMIMAJOR_AXIS,PERIOD,APOGEE,PERIGEE,DECAYED
51975.0,STARLINK-3674,PAYLOAD,2022-09-02 14:00:01,15.08859568,0.0001602,53.2199,33.6933,61.2048,81.5252,-0.0016654,-0.00026709,0.0,0 STARLINK-3674,1 51975U 22025V   22245.58334491 -.00026709  00000-0 -16654-2 0  9990,2 51975  53.2199  33.6933 0001602  61.2048  81.5252 15.08859568  1307,6917.821,95.436,540.794,538.577,0.0
51975.0,STARLINK-3674,PAYLOAD,2022-09-02 22:00:01,15.08838722,0.0001665999999999,53.2198,32.1978,54.8439,99.5587,0.0019291,0.00030546,0.0,0 STARLINK-3674,1 51975U 22025V   22245.91668981  .00030546  00000-0  19291-2 0  9993,2 51975  53.2198  32.1978 0001666  54.8439  99.5587 15.08838722  1300,6917.884,95.438,540.9019999999998,538.597,0.0
51975.0,STARLINK-3674,PAYLOAD,2022-09-03 00:00:00,15.08865212,0.0001626,53.2198,31.8233,56.4766,190.758,-0.0011749,-0.00018951,0.0,0 STARLINK-3674,1 51975U 22025V   22246.00001157 -.00018951  00000-0 -11749-2 0  9998,2 51975  53.2198  31.8233 0001626  56.4766 190.7580 15.08865212 28521,6917.803000000001,95.436,540.793,538.543,0.0
51975.0,STARLINK-3674,PAYLOAD,2022-09-03 14:00:01,15.08885075,0.0001548,53.2202,29.2045,59.1531,118.4132,-0.0044048,-0.00069797,0.0,0 STARLINK-3674,1 51975U 22025V   22246.58334491 -.00069797  00000-0 -44048-2 0  9993,2 51975  53.2202  29.2045 0001548  59.1531 118.4132 15.08885075  1308,6917.743,95.435,540.678,538.5369999999998,0.0
51975.0,STARLINK-3674,PAYLOAD,2022-09-03 22:00:00,15.08840607,0.0001564,53.22,27.7088,51.6729,137.5186,0.0016052,0.00025351,0.0,0 STARLINK-3674,1 51975U 22025V   22246.91667824  .00025351  00000-0  16052-2 0  9999,2 51975  53.2200  27.7088 0001564  51.6729 137.5186 15.08840607 28661,6917.879,95.438,540.825,538.6619999999998,0.0
51975.0,STARLINK-3674,PAYLOAD,2022-09-04 14:00:01,15.08850239,0.0001594,53.2202,24.7158,59.5153,152.9323,-0.0008795,-0.00014262,0.0,0 STARLINK-3674,1 51975U 22025V   22247.58335648 -.00014262  00000-0 -87950-3 0  9996,2 51975  53.2202  24.7158 0001594  59.5153 152.9323 15.08850239 28766,6917.849,95.437,540.817,538.611,0.0
51975.0,STARLINK-3674,PAYLOAD,2022-09-04 20:00:01,15.08838187,0.0001708,53.22,23.5943,54.8166,76.273,0.0021781,0.00034545,0.0,0 STARLINK-3674,1 51975U 22025V   22247.83334491  .00034545  00000-0  21781-2 0  9992,2 51975  53.2200  23.5943 0001708  54.8166  76.2730 15.08838187  1301,6917.886,95.438,540.933,538.569,0.0
51975.0,STARLINK-3674,PAYLOAD,2022-09-05 14:00:01,15.08865393,0.0001676999999999,53.2199,20.227,61.3335,185.8628,-0.0016486,-0.00026448,0.0,0 STARLINK-3674,1 51975U 22025V   22248.58334491 -.00026448  00000-0 -16486-2 0  9996,2 51975  53.2199  20.2270 0001677  61.3335 185.8628 15.08865393 28919,6917.803000000001,95.436,540.828,538.508,0.0
51975.0,STARLINK-3674,PAYLOAD,2022-09-05 22:00:00,15.08857916,0.0001595,53.2194,18.7309,55.4649,203.3403,-0.0035304,-0.00056065,0.0,0 STARLINK-3674,1 51975U 22025V   22248.91667824 -.00056065  00000-0 -35304-2 0  9990,2 51975  53.2194  18.7309 0001595  55.4649 203.3403 15.08857916  1303,6917.826,95.436,540.794,538.587,0.0
51975.0,STARLINK-3674,PAYLOAD,2022-09-06 14:00:01,15.08833387,0.0001520999999999,53.2194,15.7382,57.7351,224.2326,-0.00048972,-8.072e-05,0.0,0 STARLINK-3674,1 51975U 22025V   22249.58334491 -.00008072  00000-0 -48972-3 0  9996,2 51975  53.2194  15.7382 0001521  57.7351 224.2326 15.08833387  1307,6917.901,95.438,540.818,538.7130000000002,0.0
51975.0,STARLINK-3674,PAYLOAD,2022-09-06 22:00:00,15.08852745,0.000157,53.2191,14.2419,54.7719,238.7739,-0.0030859,-0.00049083,0.0,0 STARLINK-3674,1 51975U 22025V   22249.91667824 -.00049083  00000-0 -30859-2 0  9993,2 51975  53.2191  14.2419 0001570  54.7719 238.7739 15.08852745 29114,6917.840999999999,95.437,540.793,538.62,0.0
51975.0,STARLINK-3674,PAYLOAD,2022-09-07 14:00:01,15.08835087,0.0001652,53.2193,11.2494,58.7587,257.9491,-0.00045709,-7.554e-05,0.0,0 STARLINK-3674,1 51975U 22025V   22250.58334491 -.00007554  00000-0 -45709-3 0  9997,2 51975  53.2193  11.2494 0001652  58.7587 257.9491 15.08835087  1303,6917.895,95.438,540.903,538.618,0.0
51975.0,STARLINK-3674,PAYLOAD,2022-09-07 22:00:00,15.08859387,0.0001605,53.2192,9.7529,54.288,273.9971,-0.0023668,-0.00037778,0.0,0 STARLINK-3674,1 51975U 22025V   22250.91667824 -.00037778  00000-0 -23668-2 0  9993,2 51975  53.2192   9.7529 0001605  54.2880 273.9971 15.08859387  1308,6917.821,95.436,540.7959999999998,538.576,0.0
51975.0,STARLINK-3674,PAYLOAD,2022-09-08 14:00:01,15.08836936,0.0001621999999999,53.2195,6.7605,55.0392,296.4372,-0.00044625,-7.382e-05,0.0,0 STARLINK-3674,1 51975U 22025V   22251.58334491 -.00007382  00000-0 -44625-3 0  9993,2 51975  53.2195   6.7605 0001622  55.0392 296.4372 15.08836936  1309,6917.89,95.438,540.877,538.633,0.0
51975.0,STARLINK-3674,PAYLOAD,2022-09-08 22:00:00,15.08873898,0.0001648,53.2196,5.2639,51.8466,311.2201,-0.003461,-0.00055001,0.0,0 STARLINK-3674,1 51975U 22025V   22251.91667824 -.00055001  00000-0 -34610-2 0  9992,2 51975  53.2196   5.2639 0001648  51.8466 311.2201 15.08873898  1300,6917.776999999999,95.435,540.7819999999998,538.502,0.0
51975.0,STARLINK-3674,PAYLOAD,2022-09-09 00:00:02,15.08868539,0.0001625,53.2198,4.8893,55.3491,40.6845,-0.0036585,-0.00058089,0.0,0 STARLINK-3674,1 51975U 22025V   22252.00002315 -.00058089  00000-0 -36585-2 0  9993,2 51975  53.2198   4.8893 0001625  55.3491  40.6845 15.08868539 29438,6917.793000000002,95.436,540.7819999999998,538.534,0.0
51975.0,STARLINK-3674,PAYLOAD,2022-09-09 14:00:01,15.088584699999998,0.0001751,53.22,2.2718,54.587,331.6791,-0.0020421,-0.00032658,0.0,0 STARLINK-3674,1 51975U 22025V   22252.58334491 -.00032658  00000-0 -20421-2 0  9995,2 51975  53.2200   2.2718 0001751  54.5870 331.6791 15.08858470  1304,6917.824000000001,95.436,540.9,538.4780000000002,0.0
51975.0,STARLINK-3674,PAYLOAD,2022-09-09 22:00:00,15.08846471,0.0001671,53.2199,0.7747,50.6987,347.1707,-0.0014862,-0.00023867,0.0,0 STARLINK-3674,1 51975U 22025V   22252.91667824 -.00023867  00000-0 -14862-2 0  9995,2 51975  53.2199   0.7747 0001671  50.6987 347.1707 15.08846471  1300,6917.861,95.437,540.882,538.57,0.0
51975.0,STARLINK-3674,PAYLOAD,2022-09-10 14:00:01,15.08846602,0.0001675999999999,53.2206,357.7832,50.7532,10.3255,-0.0017874,-0.00028627,0.0,0 STARLINK-3674,1 51975U 22025V   22253.58334491 -.00028627  00000-0 -17874-2 0  9995,2 51975  53.2206 357.7832 0001676  50.7532  10.3255 15.08846602 29663,6917.86,95.437,540.885,538.566,0.0
51975.0,STARLINK-3674,PAYLOAD,2022-09-10 22:00:00,15.08847151,0.0001665,53.2203,356.2859,49.1723,23.4943,-0.0032186,-0.00051159,0.0,0 STARLINK-3674,1 51975U 22025V   22253.91667824 -.00051159  00000-0 -32186-2 0  9990,2 51975  53.2203 356.2859 0001665  49.1723  23.4943 15.08847151  1305,6917.859,95.437,540.875,538.572,0.0
51975.0,STARLINK-3674,PAYLOAD,2022-09-11 06:00:00,15.08816551,0.0001601,53.2208,354.7891,57.0192,27.2394,0.0028536,0.00045391,0.0,0 STARLINK-3674,1 51975U 22025V   22254.25001157  .00045391  00000-0  28536-2 0  9992,2 51975  53.2208 354.7891 0001601  57.0192  27.2394 15.08816551 29769,6917.9519999999975,95.439,540.925,538.7090000000002,0.0
51975.0,STARLINK-3674,PAYLOAD,2022-09-11 14:00:01,15.08848115,0.000171,53.2208,353.2947,50.5945,45.253,-0.00082468,-0.00013392,0.0,0 STARLINK-3674,1 51975U 22025V   22254.58334491 -.00013392  00000-0 -82468-3 0  9991,2 51975  53.2208 353.2947 0001710  50.5945  45.2530 15.08848115  1303,6917.856,95.437,540.904,538.538,0.0
51975.0,STARLINK-3674,PAYLOAD,2022-09-11 22:00:00,15.08852207,0.0001581,53.2206,351.7978,48.8409,58.6079,-0.0026029,-0.00041489,0.0,0 STARLINK-3674,1 51975U 22025V   22254.91667824 -.00041489  00000-0 -26029-2 0  9995,2 51975  53.2206 351.7978 0001581  48.8409  58.6079 15.08852207  1302,6917.843000000003,95.437,540.802,538.614,0.0
51975.0,STARLINK-3674,PAYLOAD,2022-09-12 14:00:01,15.08824264,0.0001698,53.2205,348.8062,50.4676,80.172,0.00032422,4.874e-05,0.0,0 STARLINK-3674,1 51975U 22025V   22255.58334491  .00004874  00000-0  32422-3 0  9990,2 51975  53.2205 348.8062 0001698  50.4676  80.1720 15.08824264 29974,6917.928000000001,95.439,540.9680000000002,538.619,0.0
51975.0,STARLINK-3674,PAYLOAD,2022-09-12 22:00:00,15.08855066,0.0001643,53.2201,347.3092,51.2647,90.9551,-0.0010306,-0.00016659,0.0,0 STARLINK-3674,1 51975U 22025V   22255.91667824 -.00016659  00000-0 -10306-2 0  9998,2 51975  53.2201 347.3092 0001643  51.2647  90.9551 15.08855066  1306,6917.834,95.437,540.836,538.563,0.0
51975.0,STARLINK-3674,PAYLOAD,2022-09-13 08:00:01,15.08856237,0.0001636999999999,53.2202,345.4386,57.5476,189.1787,-0.0012085999999999,-0.0001948,0.0,0 STARLINK-3674,1 51975U 22025V   22256.33334491 -.00019480  00000-0 -12086-2 0  9998,2 51975  53.2202 345.4386 0001637  57.5476 189.1787 15.08856237 30084,6917.831,95.437,540.828,538.563,0.0
51975.0,STARLINK-3674,PAYLOAD,2022-09-13 14:00:01,15.08847581,0.0001796,53.2199,344.3176,52.2418,113.1898,-0.0011378,-0.00018354,0.0,0 STARLINK-3674,1 51975U 22025V   22256.58334491 -.00018354  00000-0 -11378-2 0  9997,2 51975  53.2199 344.3176 0001796  52.2418 113.1898 15.08847581  1303,6917.857,95.437,540.965,538.48,0.0
51975.0,STARLINK-3674,PAYLOAD,2022-09-13 22:00:00,15.08830308,0.0001612,53.2194,342.8201,51.8551,125.16,-0.0013057,-0.00021003,0.0,0 STARLINK-3674,1 51975U 22025V   22256.91667824 -.00021003  00000-0 -13057-2 0  9994,2 51975  53.2194 342.8201 0001612  51.8551 125.1600 15.08830308  1303,6917.91,95.438,540.89,538.66,0.0
51975.0,STARLINK-3674,PAYLOAD,2022-09-14 14:00:01,15.08839899,0.0001679,53.2193,339.829,49.2177,150.9638,-0.00039801,-6.617e-05,0.0,0 STARLINK-3674,1 51975U 22025V   22257.58334491 -.00006617  00000-0 -39801-3 0  9999,2 51975  53.2193 339.8290 0001679  49.2177 150.9638 15.08839899  1305,6917.880999999999,95.438,540.9069999999998,538.5840000000002,0.0
